NORAD_CAT_ID,OBJECT_NAME,OBJECT_TYPE,EPOCH,MEAN_MOTION,ECCENTRICITY,INCLINATION,RA_OF_ASC_NODE,ARG_OF_PERICENTER,MEAN_ANOMALY,BSTAR,MEAN_MOTION_DOT,MEAN_MOTION_DDOT,TLE_LINE0,TLE_LINE1,TLE_LINE2,SEMIMAJOR_AXIS,PERIOD,APOGEE,PERIGEE,DECAYED
53578.0,STARLINK-4556,PAYLOAD,2024-06-04 10:53:52,15.08841253,0.0001473,53.2169,61.3541,72.8875,287.2278,0.00010258,1.345e-05,0.0,0 STARLINK-4556,1 53578U 22101BD  24156.45408482  .00001345  00000-0  10258-3 0  9999,2 53578  53.2169  61.3541 0001473  72.8875 287.2278 15.08841253 99346,6917.877,95.437,540.761,538.723,0.0
53578.0,STARLINK-4556,PAYLOAD,2024-06-05 02:47:44,15.08832125,5.29e-05,53.2203,58.3776,45.0347,315.0688,0.00010488,1.382e-05,0.0,0 STARLINK-4556,1 53578U 22101BD  24157.11649207  .00001382  00000-0  10488-3 0  9991,2 53578  53.2203  58.3776 0000529  45.0347 315.0688 15.08832125 99442,6917.904,95.438,540.135,539.404,0.0
53578.0,STARLINK-4556,PAYLOAD,2024-06-05 10:44:40,15.08832871,0.0001177,53.2178,56.8928,88.9684,271.1443,7.9654e-06,-1.61e-06,0.0,0 STARLINK-4556,1 53578U 22101BD  24157.44769449 -.00000161  00000-0  79654-5 0  9995,2 53578  53.2178  56.8928 0001177  88.9684 271.1443 15.08832871 99499,6917.902,95.438,540.581,538.953,0.0
53578.0,STARLINK-4556,PAYLOAD,2024-06-05 23:27:45,15.08839873,0.0001199,53.2185,54.5122,90.5363,269.5766,-2.0014e-05,-6.06e-06,0.0,0 STARLINK-4556,1 53578U 22101BD  24157.97761148 -.00000606  00000-0 -20014-4 0  9991,2 53578  53.2185  54.5122 0001199  90.5363 269.5766 15.08839873 99572,6917.881,95.438,540.575,538.916,0.0
53578.0,STARLINK-4556,PAYLOAD,2024-06-06 02:38:31,15.08851447,0.0001334,53.218,53.9193,89.7231,270.3914,-6.4963e-05,-1.322e-05,0.0,0 STARLINK-4556,1 53578U 22101BD  24158.11008634 -.00001322  00000-0 -64963-4 0  9999,2 53578  53.2180  53.9193 0001334  89.7231 270.3914 15.08851447 99591,6917.845,95.437,540.633,538.788,0.0
53578.0,STARLINK-4556,PAYLOAD,2024-06-06 10:35:27,15.08848825,0.0001337,53.2177,52.4327,88.8192,271.2954,-7.2046e-05,-1.435e-05,0.0,0 STARLINK-4556,1 53578U 22101BD  24158.44128675 -.00001435  00000-0 -72046-4 0  9999,2 53578  53.2177  52.4327 0001337  88.8192 271.2954 15.08848825 99645,6917.853,95.437,540.643,538.793,0.0
53578.0,STARLINK-4556,PAYLOAD,2024-06-07 16:47:47,15.08840877,0.0001579,53.2136,46.7826,91.5305,268.5868,5.0554e-05,5.17e-06,0.0,0 STARLINK-4556,1 53578U 22101BD  24159.69985194  .00000517  00000-0  50554-4 0  9992,2 53578  53.2136  46.7826 0001579  91.5305 268.5868 15.08840877 99838,6917.878,95.437,540.835,538.65,0.0
53578.0,STARLINK-4556,PAYLOAD,2024-06-07 23:09:19,15.08843903,0.0001573,53.212,45.5905,102.9111,257.2057,7.5116e-05,9.08e-06,0.0,0 STARLINK-4556,1 53578U 22101BD  24159.96480828  .00000908  00000-0  75116-4 0  9991,2 53578  53.2120  45.5905 0001573 102.9111 257.2057 15.08843903 99874,6917.868,95.437,540.822,538.645,0.0
53578.0,STARLINK-4556,PAYLOAD,2024-06-08 02:20:05,15.08845343,0.0001609,53.2192,44.9968,104.1759,255.9412,8.7395e-05,1.103e-05,0.0,0 STARLINK-4556,1 53578U 22101BD  24160.09728738  .00001103  00000-0  87395-4 0  9992,2 53578  53.2192  44.9968 0001609 104.1759 255.9412 15.08845343 99899,6917.864,95.437,540.842,538.616,0.0
53578.0,STARLINK-4556,PAYLOAD,2024-06-08 23:00:07,15.08835217,0.0001871,53.2173,41.1322,95.8195,264.3011,3.3996e-05,2.53e-06,0.0,0 STARLINK-4556,1 53578U 22101BD  24160.95841842  .00000253  00000-0  33996-4 0  9992,2 53578  53.2173  41.1322 0001871  95.8195 264.3011 15.08835217100028,6917.895,95.438,541.054,538.466,0.0
53578.0,STARLINK-4556,PAYLOAD,2024-06-09 22:50:54,15.08839767,0.0001361,53.2177,36.6748,95.2984,264.8164,3.926e-05,3.37e-06,0.0,0 STARLINK-4556,1 53578U 22101BD  24161.95201951  .00000337  00000-0  39260-4 0  9997,2 53578  53.2177  36.6748 0001361  95.2984 264.8164 15.08839767100171,6917.881,95.438,540.688,538.805,0.0
53578.0,STARLINK-4556,PAYLOAD,2024-06-10 02:01:40,15.08842417,0.0001258,53.218,36.0784,89.7121,270.4016,5.4443e-05,5.79e-06,0.0,0 STARLINK-4556,1 53578U 22101BD  24162.08449765  .00000579  00000-0  54443-4 0  9997,2 53578  53.2180  36.0784 0001258  89.7121 270.4016 15.08842417100192,6917.873,95.437,540.608,538.868,0.0
53578.0,STARLINK-4556,PAYLOAD,2024-06-10 22:41:41,15.08853078,0.0001327,53.218,32.213,85.1762,274.9382,4.5593e-05,4.38e-06,0.0,0 STARLINK-4556,1 53578U 22101BD  24162.94561522  .00000438  00000-0  45593-4 0  9998,2 53578  53.2180  32.2130 0001327  85.1762 274.9382 15.08853078100328,6917.84,95.437,540.623,538.787,0.0
53578.0,STARLINK-4556,PAYLOAD,2024-06-11 00:17:04,15.08852979,0.0001374,53.2182,31.9159,87.6991,272.4158,7.7777e-05,9.51e-06,0.0,0 STARLINK-4556,1 53578U 22101BD  24163.01185402  .00000951  00000-0  77777-4 0  9995,2 53578  53.2182  31.9159 0001374  87.6991 272.4158 15.08852979100334,6917.841,95.437,540.656,538.755,0.0
53578.0,STARLINK-4556,PAYLOAD,2024-06-11 22:32:28,15.08846416,0.0001346,53.2183,27.7528,88.6677,271.4469,9.8729e-05,1.284e-05,0.0,0 STARLINK-4556,1 53578U 22101BD  24163.93921553  .00001284  00000-0  98729-4 0  9991,2 53578  53.2183  27.7528 0001346  88.6677 271.4469 15.08846416100477,6917.861,95.437,540.657,538.795,0.0
53578.0,STARLINK-4556,PAYLOAD,2024-06-12 08:04:47,15.08839945,0.0001321,53.2184,25.9683,88.6437,271.4706,2.1266e-05,5.1e-07,0.0,0 STARLINK-4556,1 53578U 22101BD  24164.33666040  .00000051  00000-0  21266-4 0  9996,2 53578  53.2184  25.9683 0001321  88.6437 271.4706 15.08839945100537,6917.881,95.438,540.659,538.832,0.0
53578.0,STARLINK-4556,PAYLOAD,2024-06-12 20:47:53,15.0883465,0.000162,53.2186,23.5877,92.1888,267.929,-9.0159e-05,-1.722e-05,0.0,0 STARLINK-4556,1 53578U 22101BD  24164.86658982 -.00001722  00000-0 -90159-4 0  9995,2 53578  53.2186  23.5877 0001620  92.1888 267.9290 15.08834650100615,6917.897,95.438,540.882,538.641,0.0
53578.0,STARLINK-4556,PAYLOAD,2024-06-12 22:23:16,15.08836114,0.0001639,53.2187,23.292,89.0455,271.0725,-6.9589e-05,-1.395e-05,0.0,0 STARLINK-4556,1 53578U 22101BD  24164.93282887 -.00001395  00000-0 -69589-4 0  9999,2 53578  53.2187  23.2920 0001639  89.0455 271.0725 15.08836114100624,6917.892,95.438,540.891,538.623,0.0
53578.0,STARLINK-4556,PAYLOAD,2024-06-13 07:55:34,15.0884066,0.0001546,53.2189,21.5074,93.4518,266.6651,6.885e-06,-1.78e-06,0.0,0 STARLINK-4556,1 53578U 22101BD  24165.33026345 -.00000178  00000-0  68850-5 0  9997,2 53578  53.2189  21.5074 0001546  93.4518 266.6651 15.08840660100688,6917.878,95.438,540.813,538.674,0.0
53578.0,STARLINK-4556,PAYLOAD,2024-06-13 20:38:38,15.08851296,0.0001559,53.2186,19.127,119.7217,240.393,3.734e-05,3.06e-06,0.0,0 STARLINK-4556,1 53578U 22101BD  24165.86017355  .00000306  00000-0  37340-4 0  9997,2 53578  53.2186  19.1270 0001559 119.7217 240.3930 15.08851296100763,6917.846,95.437,540.789,538.632,0.0
53578.0,STARLINK-4556,PAYLOAD,2024-06-14 14:07:54,15.08834558,0.0001484,53.2177,15.8575,95.7397,264.3764,0.00014158,1.966e-05,0.0,0 STARLINK-4556,1 53578U 22101BD  24166.58882169  .00001966  00000-0  14158-3 0  9994,2 53578  53.2177  15.8575 0001484  95.7397 264.3764 15.08834558100878,6917.897,95.438,540.789,538.735,0.0
53578.0,STARLINK-4556,PAYLOAD,2024-06-14 20:29:26,15.08844678,0.0001446,53.2178,14.6687,99.0658,261.0498,0.00010686,1.413e-05,0.0,0 STARLINK-4556,1 53578U 22101BD  24166.85377702  .00001413  00000-0  10686-3 0  9995,2 53578  53.2178  14.6687 0001446  99.0658 261.0498 15.08844678100912,6917.866,95.437,540.731,538.731,0.0
53578.0,STARLINK-4556,PAYLOAD,2024-06-15 13:58:41,15.08840021,0.0001427,53.218,11.3977,100.9646,259.1507,-1.1373e-05,-4.69e-06,0.0,0 STARLINK-4556,1 53578U 22101BD  24167.58242278 -.00000469  00000-0 -11373-4 0  9992,2 53578  53.2180  11.3977 0001427 100.9646 259.1507 15.08840021101029,6917.88,95.438,540.733,538.758,0.0
53578.0,STARLINK-4556,PAYLOAD,2024-06-15 20:20:13,15.08843777,0.0001373,53.2181,10.2084,92.1301,267.9848,7.0178e-06,-1.76e-06,0.0,0 STARLINK-4556,1 53578U 22101BD  24167.84738013 -.00000176  00000-0  70178-5 0  9991,2 53578  53.2181  10.2084 0001373  92.1301 267.9848 15.08843777101067,6917.869,95.437,540.684,538.784,0.0
53578.0,STARLINK-4556,PAYLOAD,2024-06-16 13:49:28,15.0884037,0.0001322,53.218,6.9391,92.5299,267.5845,4.5298e-05,4.33e-06,0.0,0 STARLINK-4556,1 53578U 22101BD  24168.57602048  .00000433  00000-0  45298-4 0  9999,2 53578  53.2180   6.9391 0001322  92.5299 267.5845 15.08840370101174,6917.879,95.438,540.659,538.83,0.0
53578.0,STARLINK-4556,PAYLOAD,2024-06-16 20:11:00,15.08845891,0.0001304,53.218,5.7497,92.2858,267.8284,9.2884e-05,1.191e-05,0.0,0 STARLINK-4556,1 53578U 22101BD  24168.84097570  .00001191  00000-0  92884-4 0  9992,2 53578  53.2180   5.7497 0001304  92.2858 267.8284 15.08845891101214,6917.862,95.437,540.629,538.825,0.0
53578.0,STARLINK-4556,PAYLOAD,2024-06-17 20:01:48,15.08829319,0.0001369,53.2193,1.2908,100.2972,259.8174,-5.3664e-06,-3.73e-06,0.0,0 STARLINK-4556,1 53578U 22101BD  24169.83459027 -.00000373  00000-0 -53664-5 0  9998,2 53578  53.2193   1.2908 0001369 100.2972 259.8174 15.08829319101366,6917.913,95.438,540.725,538.831,0.0
53578.0,STARLINK-4556,PAYLOAD,2024-06-18 05:34:07,15.0883644,0.0001413,53.2199,359.5065,96.0109,264.1044,-4.1336e-05,-9.46e-06,0.0,0 STARLINK-4556,1 53578U 22101BD  24170.23202833 -.00000946  00000-0 -41336-4 0  9993,2 53578  53.2199 359.5065 0001413  96.0109 264.1044 15.08836440101424,6917.891,95.438,540.734,538.779,0.0
53578.0,STARLINK-4556,PAYLOAD,2024-06-18 19:52:34,15.08844052,0.0001323,53.2193,356.83,97.6279,262.4863,3.9374e-05,3.39e-06,0.0,0 STARLINK-4556,1 53578U 22101BD  24170.82818168  .00000339  00000-0  39374-4 0  9995,2 53578  53.2193 356.8300 0001323  97.6279 262.4863 15.08844052101513,6917.868,95.437,540.648,538.818,0.0
53578.0,STARLINK-4556,PAYLOAD,2024-06-18 21:27:58,15.08844149,0.0001322,53.2193,356.5327,97.5277,262.5865,3.9626e-05,3.43e-06,0.0,0 STARLINK-4556,1 53578U 22101BD  24170.89442150  .00000343  00000-0  39626-4 0  9991,2 53578  53.2193 356.5327 0001322  97.5277 262.5865 15.08844149101526,6917.868,95.437,540.647,538.818,0.0
